{
  "norad_id": 65896,
  "name": "STARLINK-34906",
  "history": [
    {
      "epoch": "2026-03-28T19:51:13.149792Z",
      "apogee_km": 475.7837496266293,
      "perigee_km": 474.6052507418581,
      "latitude_deg": 5.7893447941392627e-05,
      "longitude_deg": 158.45465589354674,
      "height_km": 476.01247307872256,
      "semi_major_axis_km": 6853.331500184244,
      "eccentricity": 8.598e-05,
      "inclination_deg": 53.1581,
      "raan_deg": 282.5015,
      "arg_perigee_deg": 82.1524,
      "mean_anomaly_deg": 277.9575,
      "mean_motion_rev_day": 15.30206889
    },
    {
      "epoch": "2026-03-29T22:30:07.438176Z",
      "apogee_km": 475.76912514733976,
      "perigee_km": 474.60858294721584,
      "latitude_deg": 1.8615569963310043e-05,
      "longitude_deg": 112.47721398526558,
      "height_km": 475.8724752186273,
      "semi_major_axis_km": 6853.325854047278,
      "eccentricity": 8.467e-05,
      "inclination_deg": 53.1579,
      "raan_deg": 277.3447,
      "arg_perigee_deg": 68.2653,
      "mean_anomaly_deg": 291.8438,
      "mean_motion_rev_day": 15.3020878
    },
    {
      "epoch": "2026-03-30T12:36:36.231840Z",
      "apogee_km": 475.7148248257099,
      "perigee_km": 474.61952975209624,
      "latitude_deg": -2.0693424951833288e-05,
      "longitude_deg": -102.45658316458814,
      "height_km": 476.3377371727826,
      "semi_major_axis_km": 6853.304177288903,
      "eccentricity": 7.991e-05,
      "inclination_deg": 53.1581,
      "raan_deg": 274.6103,
      "arg_perigee_deg": 119.77,
      "mean_anomaly_deg": 240.338,
      "mean_motion_rev_day": 15.3021604
    }
  ]
}